      2.10          N: GNSS NAV DATA                        RINEX VERSION / TYPE
fic2rin                                 12/03/2019 00:17:24 PGM / RUN BY / DATE
                                                            END OF HEADER
20 19 12  2 18  0  0.0 5.275863222778e-04 1.136868377216e-13 0.000000000000e+00
    4.800000000000e+01-8.450000000000e+01 5.132713798132e-09 1.654264838199e-01
   -4.410743713379e-06 5.089847720228e-03 7.834285497665e-06 5.153625242233e+03
    1.512000000000e+05 5.960464477539e-08 8.360777871843e-01-5.774199962616e-08
    9.322316065026e-01 2.137500000000e+02 2.507669690440e+00-8.388920860798e-09
    9.821837690392e-11 1.000000000000e+00 2.082000000000e+03 0.000000000000e+00
    2.400000000000e+00 0.000000000000e+00-8.381903171539e-09 4.800000000000e+01
    1.440000000000e+05 4.000000000000e+00
13 19 12  2 18  0  0.0-2.917228266597e-05 2.387423592154e-12 0.000000000000e+00
    1.060000000000e+02 1.303125000000e+01 4.604834666990e-09 1.909327842757e+00
    6.668269634247e-07 4.106004606001e-03 8.275732398033e-06 5.153661752701e+03
    1.512000000000e+05-3.539025783539e-08 2.136149459565e+00-6.146728992462e-08
    9.676116585095e-01 2.230000000000e+02 1.186560806963e+00-7.886757086518e-09
    2.371527355062e-10 1.000000000000e+00 2.082000000000e+03 0.000000000000e+00
    3.400000000000e+00 0.000000000000e+00-1.117587089539e-08 1.060000000000e+02
    1.440000000000e+05 4.000000000000e+00
12 19 12  2 18  0  0.0 1.773899421096e-04-3.979039320257e-12 0.000000000000e+00
    9.600000000000e+01 5.340625000000e+01 4.015881563301e-09-6.744323731354e-01
    2.754852175713e-06 7.645314326510e-03 8.463859558105e-06 5.153789306641e+03
    1.512000000000e+05-2.980232238770e-08-2.109169373450e+00 9.872019290924e-08
    9.805181728033e-01 2.269062500000e+02 1.092670810948e+00-7.882471193708e-09
   -2.996553389905e-10 1.000000000000e+00 2.082000000000e+03 0.000000000000e+00
    2.400000000000e+00 0.000000000000e+00-1.257285475731e-08 9.600000000000e+01
    1.440000000000e+05 4.000000000000e+00
28 19 12  2 18  0  0.0 7.524983957410e-04-1.705302565824e-12 0.000000000000e+00
    1.050000000000e+02 6.553125000000e+01 3.811944497075e-09-2.747688261982e+00
    3.347173333168e-06 1.907494303305e-02 8.067116141319e-06 5.153710889816e+03
    1.512000000000e+05 2.123415470123e-07-2.086427437083e+00 1.024454832077e-07
    9.797844403890e-01 2.332187500000e+02-1.433951656151e+00-7.352091958426e-09
   -1.996511734156e-10 1.000000000000e+00 2.082000000000e+03 0.000000000000e+00
    4.850000000000e+00 0.000000000000e+00-1.117587089539e-08 1.050000000000e+02
    1.440000000000e+05 4.000000000000e+00
18 19 12  2 18  0  0.0 1.040948554873e-04 2.501110429876e-12 0.000000000000e+00
    8.000000000000e+01-4.468750000000e+01 4.703410201628e-09 3.079266553183e-01
   -2.492219209671e-06 1.562980504241e-02 4.436820745468e-06 5.153663049698e+03
    1.512000000000e+05-1.955777406693e-07-1.361953310479e-01-2.980232238770e-08
    9.568570367306e-01 2.936875000000e+02 1.447345028118e+00-8.566071096959e-09
    7.143154683922e-12 1.000000000000e+00 2.082000000000e+03 0.000000000000e+00
    3.400000000000e+00 6.300000000000e+01-5.587935447693e-09 8.000000000000e+01
    1.440000000000e+05 4.000000000000e+00
 4 19 12  2 18  0  0.0-1.584645360708e-05-4.661160346586e-12 0.000000000000e+00
    4.000000000000e+01 1.115625000000e+01 4.837701509686e-09 2.259118309803e-01
    6.277114152908e-07 1.263812882826e-03 8.147209882736e-06 5.150588457108e+03
    1.512000000000e+05-1.862645149231e-08 2.042541073817e+00 1.862645149231e-08
    9.595917879925e-01 2.245312500000e+02-1.275401585115e+00-8.123195506556e-09
    2.382242087088e-10 1.000000000000e+00 2.082000000000e+03 0.000000000000e+00
    1.536000000000e+03 6.300000000000e+01-4.190951585770e-09 5.520000000000e+02
    1.441200000000e+05 4.000000000000e+00
13 19 12  2 17 59 44.0-2.917414531112e-05 2.387423592154e-12 0.000000000000e+00
    0.000000000000e+00 1.303125000000e+01 4.604834666990e-09 1.906994270446e+00
    6.668269634247e-07 4.106003209017e-03 8.275732398033e-06 5.153661754608e+03
    1.511840000000e+05-3.539025783539e-08 2.136149600005e+00-6.146728992462e-08
    9.676116526578e-01 2.230000000000e+02 1.186560673838e+00-7.886757086518e-09
    2.371527355062e-10 1.000000000000e+00 2.082000000000e+03 0.000000000000e+00
    2.400000000000e+00 0.000000000000e+00-1.117587089539e-08 0.000000000000e+00
    1.447800000000e+05 4.000000000000e+00
18 19 12  2 17 59 44.0 1.040971837938e-04 2.501110429876e-12 0.000000000000e+00
    2.200000000000e+01-4.468750000000e+01 4.703410201628e-09 3.055925475791e-01
   -2.492219209671e-06 1.562980003655e-02 4.436820745468e-06 5.153663059235e+03
    1.511840000000e+05-1.955777406693e-07-1.361951891449e-01-2.980232238770e-08
    9.568570323418e-01 2.936875000000e+02 1.447345263648e+00-8.566071096959e-09
    7.143154683922e-12 1.000000000000e+00 2.082000000000e+03 0.000000000000e+00
    2.400000000000e+00 6.300000000000e+01-5.587935447693e-09 2.200000000000e+01
    1.449300000000e+05 4.000000000000e+00
 7 19 12  2 17 59 44.0-1.614280045033e-04-8.185452315956e-12 0.000000000000e+00
    1.000000000000e+00 1.700000000000e+01 4.966278293997e-09-8.982495336414e-02
    9.164214134216e-07 1.318593265023e-02 6.752088665962e-06 5.153714042664e+03
    1.511840000000e+05-1.490116119385e-08 3.070849378986e+00 1.266598701477e-07
    9.545415197543e-01 2.446562500000e+02-2.422081014288e+00-8.416422006331e-09
   -3.378712165495e-10 1.000000000000e+00 2.082000000000e+03 0.000000000000e+00
    2.400000000000e+00 0.000000000000e+00-1.117587089539e-08 1.000000000000e+00
    1.452900000000e+05 4.000000000000e+00
13 19 12  2 19 59 44.0-2.915691584349e-05 2.387423592154e-12 0.000000000000e+00
    1.000000000000e+00 1.553125000000e+01 4.546260798582e-09 2.957121442858e+00
    6.873160600662e-07 4.105694591999e-03 8.253380656242e-06 5.153662496567e+03
    1.583840000000e+05 1.303851604462e-08 2.136093027500e+00-4.097819328308e-08
    9.676134725279e-01 2.245312500000e+02 1.186621854535e+00-7.856398679111e-09
    2.360812623036e-10 1.000000000000e+00 2.082000000000e+03 0.000000000000e+00
    2.400000000000e+00 0.000000000000e+00-1.117587089539e-08 1.000000000000e+00
    1.512000000000e+05 4.000000000000e+00
 7 19 12  2 19 59 44.0-1.614871434867e-04-8.185452315956e-12 0.000000000000e+00
    9.000000000000e+00 1.768750000000e+01 5.022352058265e-09 9.603345349081e-01
    1.119449734688e-06 1.318600180093e-02 6.949529051781e-06 5.153714160919e+03
    1.583840000000e+05-4.656612873077e-08 3.070788882934e+00 1.378357410431e-07
    9.545390474228e-01 2.446562500000e+02-2.422080964548e+00-8.404992958836e-09
   -3.468001599044e-10 1.000000000000e+00 2.082000000000e+03 0.000000000000e+00
    2.400000000000e+00 0.000000000000e+00-1.117587089539e-08 9.000000000000e+00
    1.512000000000e+05 4.000000000000e+00
18 19 12  2 19 59 44.0 1.041153445840e-04 2.501110429876e-12 0.000000000000e+00
    2.300000000000e+01-3.890625000000e+01 4.679480633437e-09 1.355812907873e+00
   -2.289190888405e-06 1.562901108991e-02 4.177913069725e-06 5.153661363602e+03
    1.583840000000e+05-1.862645149231e-07-1.362571130043e-01-2.495944499969e-07
    9.568575823990e-01 2.984375000000e+02 1.447314804231e+00-8.437851470382e-09
    6.035965707914e-11 1.000000000000e+00 2.082000000000e+03 0.000000000000e+00
    2.400000000000e+00 6.300000000000e+01-5.587935447693e-09 2.300000000000e+01
    1.512000000000e+05 4.000000000000e+00
 1 19 12  2 20  0  0.0-2.168365754187e-04-1.239186531166e-11 0.000000000000e+00
    1.100000000000e+01-4.250000000000e+01 4.169816546739e-09 1.651755541631e+00
   -2.294778823853e-06 9.169449098408e-03 4.353001713753e-06 5.153642572403e+03
    1.584000000000e+05-1.527369022369e-07-7.707757822480e-02 5.401670932770e-08
    9.783109044503e-01 3.050937500000e+02 7.632511021863e-01-8.096765834225e-09
    2.000083311498e-11 1.000000000000e+00 2.082000000000e+03 0.000000000000e+00
    2.400000000000e+00 0.000000000000e+00 5.587935447693e-09 1.100000000000e+01
    1.512000000000e+05 4.000000000000e+00
 2 19 12  2 20  0  0.0-3.585838712752e-04-7.503331289627e-12 0.000000000000e+00
    9.800000000000e+01-5.365625000000e+01 4.443399371133e-09 1.949197015422e+00
   -3.043562173843e-06 1.948444172740e-02 3.881752490997e-06 5.153589790344e+03
    1.584000000000e+05 2.402812242508e-07-1.496906815720e-01-4.209578037262e-07
    9.573662477927e-01 2.999062500000e+02-1.695178183273e+00-8.031763126602e-09
    7.036007363663e-11 1.000000000000e+00 2.082000000000e+03 0.000000000000e+00
    2.400000000000e+00 0.000000000000e+00-1.769512891769e-08 9.800000000000e+01
    1.512000000000e+05 4.000000000000e+00
 5 19 12  2 20  0  0.0-4.188157618046e-06-4.547473508865e-13 0.000000000000e+00
    1.700000000000e+01-6.450000000000e+01 4.640550440410e-09-1.778185502438e+00
   -3.483146429062e-06 5.809917463921e-03 8.368864655495e-06 5.153559646606e+03
    1.584000000000e+05 7.078051567078e-08 9.346252740256e-01-4.097819328308e-08
    9.510070994344e-01 2.066250000000e+02 8.060836787465e-01-8.008905031613e-09
    2.003654888840e-10 1.000000000000e+00 2.082000000000e+03 0.000000000000e+00
    2.400000000000e+00 0.000000000000e+00-1.117587089539e-08 1.700000000000e+01
    1.512000000000e+05 4.000000000000e+00
 3 19 12  2 20  0  0.0-4.616100341082e-05-6.366462912410e-12 0.000000000000e+00
    5.200000000000e+01-6.762500000000e+01 4.405183493574e-09 4.731574928631e-01
   -3.699213266373e-06 2.599430736154e-03 8.417293429375e-06 5.153662982941e+03
    1.584000000000e+05-2.421438694000e-08 9.640849024174e-01 5.215406417847e-08
    9.641020478172e-01 2.225312500000e+02 7.915244078830e-01-7.929616014621e-09
    1.453631978178e-10 1.000000000000e+00 2.082000000000e+03 0.000000000000e+00
    2.400000000000e+00 0.000000000000e+00 2.328306436539e-09 5.200000000000e+01
    1.512000000000e+05 4.000000000000e+00
